#cV2014 05 04 00 00  0.00000000 0010081   SLR SLRF8 FIT  UCT
## 1791      0.00000000    60.00000000 56781 0.0000000000000
+   01   L27  0  0  0  0  0  0  0  0  0  0  0  0  0  0  0  0
+          0  0  0  0  0  0  0  0  0  0  0  0  0  0  0  0  0
+          0  0  0  0  0  0  0  0  0  0  0  0  0  0  0  0  0
+          0  0  0  0  0  0  0  0  0  0  0  0  0  0  0  0  0
+          0  0  0  0  0  0  0  0  0  0  0  0  0  0  0  0  0
++         0  0  0  0  0  0  0  0  0  0  0  0  0  0  0  0  0
++         0  0  0  0  0  0  0  0  0  0  0  0  0  0  0  0  0
++         0  0  0  0  0  0  0  0  0  0  0  0  0  0  0  0  0
++         0  0  0  0  0  0  0  0  0  0  0  0  0  0  0  0  0
++         0  0  0  0  0  0  0  0  0  0  0  0  0  0  0  0  0
%c L  cc UTC ccc cccc cccc cccc cccc ccccc ccccc ccccc ccccc
%c cc cc ccc ccc cccc cccc cccc cccc ccccc ccccc ccccc ccccc
%f  0.0000000  0.000000000  0.00000000000  0.000000000000000
%f  0.0000000  0.000000000  0.00000000000  0.000000000000000
%i    0    0    0    0      0      0      0      0         0
%i    0    0    0    0      0      0      0      0         0
/*   Geodyn: ITRF2008 Reference Frame          
/*   based on Integration of Orbit Elements    
/*   estimated in Geodyn Solution              
/*                                             
*  2014 05 05 04 45  0.00000000
PL27   5562.069196   4848.482048   2259.333423
VL27 -30895.318950   6412.930275  62229.326343
*  2014 05 05 04 46  0.00000000
PL27   5368.308013   4880.248678   2628.977994
VL27 -33678.229861   4177.315059  60953.400744
*  2014 05 05 04 47  0.00000000
PL27   5158.101246   4898.632517   2990.392932
VL27 -36375.741348   1953.038001  59486.844016
*  2014 05 05 04 48  0.00000000
PL27   4931.986958   4903.720155   3342.448159
VL27 -38979.338073   -253.734800  57834.323968
*  2014 05 05 04 49  0.00000000
PL27   4690.553556   4895.634782   3684.043364
VL27 -41480.757983  -2436.973049  56001.093523
*  2014 05 05 04 50  0.00000000
PL27   4434.438196   4874.535316   4014.111463
VL27 -43872.018252  -4590.799855  53992.970904
*  2014 05 05 04 51  0.00000000
PL27   4164.325032   4840.615437   4331.621924
VL27 -46145.439296  -6709.507331  51816.319196
*  2014 05 05 04 52  0.00000000
PL27   3880.943325   4794.102531   4635.583980
VL27 -48293.669319  -8787.570794  49478.026548
*  2014 05 05 04 53  0.00000000
PL27   3585.065397   4735.256544   4925.049714
VL27 -50309.710860 -10819.664153  46985.483844
*  2014 05 05 04 54  0.00000000
PL27   3277.504431   4664.368742   5199.116991
VL27 -52186.944921 -12800.675729  44346.556818
*  2014 05 05 04 55  0.00000000
PL27   2959.112138   4581.760385   5456.932223
VL27 -53919.150104 -14725.720923  41569.556403
*  2014 05 05 04 56  0.00000000
PL27   2630.776324   4487.781336   5697.692953
VL27 -55500.519913 -16590.152057  38663.210358
*  2014 05 05 04 57  0.00000000
PL27   2293.418344   4382.808610   5920.650267
VL27 -56925.679632 -18389.566999  35636.635264
*  2014 05 05 04 58  0.00000000
PL27   1947.990467   4267.244879   6125.111052
VL27 -58189.702913 -20119.817059  32499.308370
*  2014 05 05 04 59  0.00000000
PL27   1595.473132   4141.516928   6310.440063
VL27 -59288.127897 -21777.014861  29261.038305
*  2014 05 05 05 00  0.00000000
PL27   1236.872122   4006.074060   6476.061827
VL27 -60216.971749 -23357.541755  25931.934065
*  2014 05 05 05 01  0.00000000
PL27    873.215645   3861.386473   6621.462344
VL27 -60972.743078 -24858.053962  22522.372925
*  2014 05 05 05 02  0.00000000
PL27    505.551358   3707.943588   6746.190603
VL27 -61552.452452 -26275.487114  19042.968198
*  2014 05 05 05 03  0.00000000
PL27    134.943326   3546.252366   6849.859900
VL27 -61953.621755 -27607.059462  15504.537232
*  2014 05 05 05 04  0.00000000
PL27   -237.531076   3376.835606   6932.148968
VL27 -62174.292629 -28850.274186  11918.069269
*  2014 05 05 05 05  0.00000000
PL27   -610.784295   3200.230228   6992.802909
VL27 -62213.033695 -30002.920965   8294.692929
*  2014 05 05 05 06  0.00000000
PL27   -983.721792   3016.985553   7031.633933
VL27 -62068.946292 -31063.076761   4645.643493
*  2014 05 05 05 07  0.00000000
PL27  -1355.245239   2827.661576   7048.521902
VL27 -61741.668893 -32029.105767    982.230333
*  2014 05 05 05 08  0.00000000
PL27  -1724.255764   2632.827251   7043.414672
VL27 -61231.380414 -32899.658748  -2684.195702
*  2014 05 05 05 09  0.00000000
PL27  -2089.657192   2433.058766   7016.328249
VL27 -60538.802105 -33673.671623  -6342.275007
*  2014 05 05 05 10  0.00000000
PL27  -2450.359306   2228.937848   6967.346741
VL27 -59665.198303 -34350.363139  -9980.671575
*  2014 05 05 05 11  0.00000000
PL27  -2805.281103   2021.050067   6896.622122
VL27 -58612.376542 -34929.232060 -13588.105367
*  2014 05 05 05 12  0.00000000
PL27  -3153.354055   1809.983170   6804.373793
VL27 -57382.686417 -35410.053987 -17153.385401
*  2014 05 05 05 13  0.00000000
PL27  -3493.525348   1596.325429   6690.887952
VL27 -55979.016535 -35792.877448 -20665.443156
*  2014 05 05 05 14  0.00000000
PL27  -3824.761107   1380.664016   6556.516758
VL27 -54404.789821 -36078.019309 -24113.365657
*  2014 05 05 05 15  0.00000000
PL27  -4146.049582   1163.583411   6401.677298
VL27 -52663.957369 -36266.059872 -27486.428480
*  2014 05 05 05 16  0.00000000
PL27  -4456.404295    945.663834   6226.850357
VL27 -50760.990263 -36357.837268 -30774.128982
*  2014 05 05 05 17  0.00000000
PL27  -4754.867126    727.479721   6032.578990
VL27 -48700.869135 -36354.440494 -33966.218683
*  2014 05 05 05 18  0.00000000
PL27  -5040.511343    509.598241   5819.466902
VL27 -46489.072794 -36257.201731 -37052.734011
*  2014 05 05 05 19  0.00000000
PL27  -5312.444549    292.577857   5588.176650
VL27 -44131.566100 -36067.688835 -40024.026714
*  2014 05 05 05 20  0.00000000
PL27  -5569.811561     76.966939   5339.427656
VL27 -41634.786005 -35787.697630 -42870.794149
*  2014 05 05 05 21  0.00000000
PL27  -5811.797193   -136.697583   5073.994051
VL27 -39005.625754 -35419.243850 -45584.109008
*  2014 05 05 05 22  0.00000000
PL27  -6037.628946   -347.891510   4792.702327
VL27 -36251.417089 -34964.554594 -48155.448310
*  2014 05 05 05 23  0.00000000
PL27  -6246.579577   -556.104620   4496.428833
VL27 -33379.910743 -34426.059070 -50576.721229
*  2014 05 05 05 24  0.00000000
PL27  -6437.969552   -760.841845   4186.097100
VL27 -30399.255534 -33806.378657 -52840.295834
*  2014 05 05 05 25  0.00000000
PL27  -6611.169371   -961.624397   3862.675007
VL27 -27317.975994 -33108.316371 -54939.024646
*  2014 05 05 05 26  0.00000000
PL27  -6765.601747  -1157.990822   3527.171807
VL27 -24144.948770 -32334.845915 -56866.268829
*  2014 05 05 05 27  0.00000000
PL27  -6900.743648  -1349.497996   3180.635000
VL27 -20889.377858 -31489.100636 -58615.921415
*  2014 05 05 05 28  0.00000000
PL27  -7016.128184  -1535.722042   2824.147075
VL27 -17560.767945 -30574.362312 -60182.429739
*  2014 05 05 05 29  0.00000000
PL27  -7111.346321  -1716.259194   2458.822124
VL27 -14168.895348 -29594.049471 -61560.816457
*  2014 05 05 05 30  0.00000000
PL27  -7186.048422  -1890.726573   2085.802326
VL27 -10723.776867 -28551.705020 -62746.698160
*  2014 05 05 05 31  0.00000000
PL27  -7239.945589  -2058.762901   1706.254342
VL27  -7235.637507 -27450.983316 -63736.301115
*  2014 05 05 05 32  0.00000000
PL27  -7272.810820  -2220.029126   1321.365612
VL27  -3714.877784 -26295.636988 -64526.474449
*  2014 05 05 05 33  0.00000000
PL27  -7284.479959  -2374.208973    932.340582
VL27   -172.040703 -25089.503639 -65114.701369
*  2014 05 05 05 34  0.00000000
PL27  -7274.852450  -2521.009417    540.396876
VL27   3382.221949 -23836.492495 -65499.108560
*  2014 05 05 05 35  0.00000000
PL27  -7243.891891  -2660.161067    146.761405
VL27   6937.184211 -22540.571068 -65678.473575
*  2014 05 05 05 36  0.00000000
PL27  -7191.626367  -2791.418479   -247.333548
VL27  10482.081471 -21205.751768 -65652.229846
*  2014 05 05 05 37  0.00000000
PL27  -7118.148577  -2914.560386   -640.654277
VL27  14006.146552 -19836.078464 -65420.468996
*  2014 05 05 05 38  0.00000000
PL27  -7023.615741  -3029.389843  -1031.969600
VL27  17498.645948 -18435.613023 -64983.940422
*  2014 05 05 05 39  0.00000000
PL27  -6908.249289  -3135.734298  -1420.054794
VL27  20948.915888 -17008.421914 -64344.048127
*  2014 05 05 05 40  0.00000000
PL27  -6772.334333  -3233.445578  -1803.695515
VL27  24346.397828 -15558.563031 -63502.844880
*  2014 05 05 05 41  0.00000000
PL27  -6616.218936  -3322.399800  -2181.691658
VL27  27680.673099 -14090.072922 -62463.024033
*  2014 05 05 05 42  0.00000000
PL27  -6440.313169  -3402.497205  -2552.861177
VL27  30941.496880 -12606.954500 -61227.909398
*  2014 05 05 05 43  0.00000000
PL27  -6245.087963  -3473.661921  -2916.043830
VL27  34118.831804 -11113.165087 -59801.443021
*  2014 05 05 05 44  0.00000000
PL27  -6031.073773  -3535.841654  -3270.104845
VL27  37202.880787  -9612.604773 -58188.170353
*  2014 05 05 05 45  0.00000000
PL27  -5798.859033  -3589.007310  -3613.938490
VL27  40184.118264  -8109.105439 -56393.223230
*  2014 05 05 05 46  0.00000000
PL27  -5549.088443  -3633.152558  -3946.471540
VL27  43053.320131  -6606.420559 -54422.301385
*  2014 05 05 05 47  0.00000000
PL27  -5282.461069  -3668.293328  -4266.666620
VL27  45801.592887  -5108.215670 -52281.652384
*  2014 05 05 05 48  0.00000000
PL27  -4999.728277  -3694.467255  -4573.525430
VL27  48420.401631  -3618.059388 -49978.049603
*  2014 05 05 05 49  0.00000000
PL27  -4701.691500  -3711.733074  -4866.091829
VL27  50901.596388  -2139.414664 -47518.768339
*  2014 05 05 05 50  0.00000000
PL27  -4389.199853  -3720.169964  -5143.454770
VL27  53237.436810   -675.631361 -44911.560706
*  2014 05 05 05 51  0.00000000
PL27  -4063.147608  -3719.876844  -5404.751083
VL27  55420.615269    770.060744 -42164.629154
*  2014 05 05 05 52  0.00000000
PL27  -3724.471528  -3710.971636  -5649.168098
VL27  57444.278263   2194.557903 -39286.598965
*  2014 05 05 05 53  0.00000000
PL27  -3374.148087  -3693.590495  -5875.946091
VL27  59302.046138   3594.887619 -36286.489908
EOF
